{"type": "FeatureCollection", "features": [ {"type": "Feature", "properties": {"norad_id": 31341, "name": "FENGYUN 1C DEB", "group": "fengyun-1c-debris", "lat": -78.29821009064186, "lon": 155.69575282817263, "alt_km": 713.965033873138, "timestamp": "2025-12-14T14:39:29.652444+00:00", "meta": {"OBJECT_NAME": "FENGYUN 1C DEB", "OBJECT_ID": "1999-025BQV", "EPOCH": "2025-12-13T09:25:27.981408", "MEAN_MOTION": 14.5333654, "ECCENTRICITY": 0.00530189, "INCLINATION": 99.5561, "RA_OF_ASC_NODE": 28.7315, "ARG_OF_PERICENTER": 344.7926, "MEAN_ANOMALY": 29.5868, "EPHEMERIS_TYPE": 0, "CLASSIFICATION_TYPE": "U", "NORAD_CAT_ID": 31341, "ELEMENT_SET_NO": 999, "REV_AT_EPOCH": 97628, "BSTAR": 0.0021090142, "MEAN_MOTION_DOT": 8.881e-05, "MEAN_MOTION_DDOT": 0}, "tle": {"line1": "1 31341U 99025BQV 25347.39268497  .00008881  00000+0  21090-2 0  9994", "line2": "2 31341  99.5561  28.7315 0053018 344.7926  29.5868 14.53336540976281"}}, "geometry": {"type": "Point", "coordinates": [155.69575282817263, -78.29821009064186]}}, {"type": "Feature", "properties": {"norad_id": 31342, "name": "FENGYUN 1C DEB", "group": "fengyun-1c-debris", "lat": -76.90081172715038, "lon": -12.521204353194765, "alt_km": 743.067561126345, "timestamp": "2025-12-14T14:39:29.652465+00:00", "meta": {"OBJECT_NAME": "FENGYUN 1C DEB", "OBJECT_ID": "1999-025BQW", "EPOCH": "2025-12-12T02:51:51.280992", "MEAN_MOTION": 14.36767896, "ECCENTRICITY": 0.01114558, "INCLINATION": 98.9351, "RA_OF_ASC_NODE": 302.3535, "ARG_OF_PERICENTER": 221.1783, "MEAN_ANOMALY": 138.0954, "EPHEMERIS_TYPE": 0, "CLASSIFICATION_TYPE": "U", "NORAD_CAT_ID": 31342, "ELEMENT_SET_NO": 999, "REV_AT_EPOCH": 97882, "BSTAR": 0.00020820544, "MEAN_MOTION_DOT": 6.09e-06, "MEAN_MOTION_DDOT": 0}, "tle": {"line1": "1 31342U 99025BQW 25346.11934353  .00000609  00000+0  20821-3 0  9997", "line2": "2 31342  98.9351 302.3535 0111455 221.1783 138.0954 14.36767896978823"}}, "geometry": {"type": "Point", "coordinates": [-12.521204353194765, -76.90081172715038]}}, {"type": "Feature", "properties": {"norad_id": 31346, "name": "FENGYUN 1C DEB", "group": "fengyun-1c-debris", "lat": -56.5473139391905, "lon": 122.205356586722, "alt_km": 590.5705024661938, "timestamp": "2025-12-14T14:39:29.652476+00:00", "meta": {"OBJECT_NAME": "FENGYUN 1C DEB", "OBJECT_ID": "1999-025BRA", "EPOCH": "2025-12-13T08:59:59.407296", "MEAN_MOTION": 15.10975251, "ECCENTRICITY": 0.01106077, "INCLINATION": 98.8654, "RA_OF_ASC_NODE": 314.4394, "ARG_OF_PERICENTER": 13.5681, "MEAN_ANOMALY": 346.8476, "EPHEMERIS_TYPE": 0, "CLASSIFICATION_TYPE": "U", "NORAD_CAT_ID": 31346, "ELEMENT_SET_NO": 999, "REV_AT_EPOCH": 99505, "BSTAR": 0.001904937, "MEAN_MOTION_DOT": 0.00036896, "MEAN_MOTION_DDOT": 0}, "tle": {"line1": "1 31346U 99025BRA 25347.37499314  .00036896  00000+0  19049-2 0  9999", "line2": "2 31346  98.8654 314.4394 0110607  13.5681 346.8476 15.10975251995058"}}, "geometry": {"type": "Point", "coordinates": [122.205356586722, -56.5473139391905]}}, {"type": "Feature", "properties": {"norad_id": 31348, "name": "FENGYUN 1C DEB", "group": "fengyun-1c-debris", "lat": 74.37353886890271, "lon": 154.7379630571443, "alt_km": 752.5737692440407, "timestamp": "2025-12-14T14:39:29.652487+00:00", "meta": {"OBJECT_NAME": "FENGYUN 1C DEB", "OBJECT_ID": "1999-025BRC", "EPOCH": "2025-12-08T08:10:46.398720", "MEAN_MOTION": 14.33993846, "ECCENTRICITY": 0.00352025, "INCLINATION": 99.1191, "RA_OF_ASC_NODE": 293.0834, "ARG_OF_PERICENTER": 78.0004, "MEAN_ANOMALY": 74.0816, "EPHEMERIS_TYPE": 0, "CLASSIFICATION_TYPE": "U", "NORAD_CAT_ID": 31348, "ELEMENT_SET_NO": 999, "REV_AT_EPOCH": 96186, "BSTAR": 0.0019749425, "MEAN_MOTION_DOT": 5.507e-05, "MEAN_MOTION_DDOT": 0}, "tle": {"line1": "1 31348U 99025BRC 25342.34081480  .00005507  00000+0  19749-2 0  9996", "line2": "2 31348  99.1191 293.0834 0035202  78.0004  74.0816 14.33993846961867"}}, "geometry": {"type": "Point", "coordinates": [154.7379630571443, 74.37353886890271]}}, {"type": "Feature", "properties": {"norad_id": 31350, "name": "FENGYUN 1C DEB", "group": "fengyun-1c-debris", "lat": 8.620144427556903, "lon": 159.32529712235137, "alt_km": 794.0108200371242, "timestamp": "2025-12-14T14:39:29.652497+00:00", "meta": {"OBJECT_NAME": "FENGYUN 1C DEB", "OBJECT_ID": "1999-025BRE", "EPOCH": "2025-12-08T18:02:03.920064", "MEAN_MOTION": 14.34830277, "ECCENTRICITY": 0.00667483, "INCLINATION": 98.9604, "RA_OF_ASC_NODE": 154.6193, "ARG_OF_PERICENTER": 136.9079, "MEAN_ANOMALY": 223.7357, "EPHEMERIS_TYPE": 0, "CLASSIFICATION_TYPE": "U", "NORAD_CAT_ID": 31350, "ELEMENT_SET_NO": 999, "REV_AT_EPOCH": 70196, "BSTAR": 0.0010632143, "MEAN_MOTION_DOT": 3.049e-05, "MEAN_MOTION_DDOT": 0}, "tle": {"line1": "1 31350U 99025BRE 25342.75143426  .00003049  00000+0  10632-2 0  9994", "line2": "2 31350  98.9604 154.6193 0066748 136.9079 223.7357 14.34830277701966"}}, "geometry": {"type": "Point", "coordinates": [159.32529712235137, 8.620144427556903]}}, {"type": "Feature", "properties": {"norad_id": 31351, "name": "FENGYUN 1C DEB", "group": "fengyun-1c-debris", "lat": 48.55215565972006, "lon": -34.75897559178338, "alt_km": 797.5944317063495, "timestamp": "2025-12-14T14:39:29.652507+00:00", "meta": {"OBJECT_NAME": "FENGYUN 1C DEB", "OBJECT_ID": "1999-025BRF", "EPOCH": "2025-12-05T22:12:04.612896", "MEAN_MOTION": 14.06922487, "ECCENTRICITY": 0.00937925, "INCLINATION": 98.7943, "RA_OF_ASC_NODE": 326.89, "ARG_OF_PERICENTER": 70.3082, "MEAN_ANOMALY": 290.8177, "EPHEMERIS_TYPE": 0, "CLASSIFICATION_TYPE": "U", "NORAD_CAT_ID": 31351, "ELEMENT_SET_NO": 999, "REV_AT_EPOCH": 61279, "BSTAR": 0.00046990462, "MEAN_MOTION_DOT": 7.73e-06, "MEAN_MOTION_DDOT": 0}, "tle": {"line1": "1 31351U 99025BRF 25339.92505339  .00000773  00000+0  46990-3 0  9993", "line2": "2 31351  98.7943 326.8900 0093792  70.3082 290.8177 14.06922487612795"}}, "geometry": {"type": "Point", "coordinates": [-34.75897559178338, 48.55215565972006]}}, {"type": "Feature", "properties": {"norad_id": 31353, "name": "FENGYUN 1C DEB", "group": "fengyun-1c-debris", "lat": 55.79778115654728, "lon": -99.5320595623593, "alt_km": 623.1178244924295, "timestamp": "2025-12-14T14:39:29.652517+00:00", "meta": {"OBJECT_NAME": "FENGYUN 1C DEB", "OBJECT_ID": "1999-025BRH", "EPOCH": "2025-12-13T14:53:27.622176", "MEAN_MOTION": 14.29852447, "ECCENTRICITY": 0.02291816, "INCLINATION": 98.9913, "RA_OF_ASC_NODE": 272.916, "ARG_OF_PERICENTER": 64.951, "MEAN_ANOMALY": 297.5274, "EPHEMERIS_TYPE": 0, "CLASSIFICATION_TYPE": "U", "NORAD_CAT_ID": 31353, "ELEMENT_SET_NO": 999, "REV_AT_EPOCH": 96597, "BSTAR": 0.00070467649, "MEAN_MOTION_DOT": 2.359e-05, "MEAN_MOTION_DDOT": 0}, "tle": {"line1": "1 31353U 99025BRH 25347.62045859  .00002359  00000+0  70468-3 0  9996", "line2": "2 31353  98.9913 272.9160 0229181  64.9510 297.5274 14.29852447965979"}}, "geometry": {"type": "Point", "coordinates": [-99.5320595623593, 55.79778115654728]}}, {"type": "Feature", "properties": {"norad_id": 31357, "name": "FENGYUN 1C DEB", "group": "fengyun-1c-debris", "lat": -71.81339934743602, "lon": 172.08970163253937, "alt_km": 808.1295130620192, "timestamp": "2025-12-14T14:39:29.652530+00:00", "meta": {"OBJECT_NAME": "FENGYUN 1C DEB", "OBJECT_ID": "1999-025BRM", "EPOCH": "2025-12-11T00:57:32.630400", "MEAN_MOTION": 14.18526149, "ECCENTRICITY": 0.00489613, "INCLINATION": 98.6116, "RA_OF_ASC_NODE": 16.0927, "ARG_OF_PERICENTER": 297.6901, "MEAN_ANOMALY": 91.8137, "EPHEMERIS_TYPE": 0, "CLASSIFICATION_TYPE": "U", "NORAD_CAT_ID": 31357, "ELEMENT_SET_NO": 999, "REV_AT_EPOCH": 96680, "BSTAR": 5.636953e-05, "MEAN_MOTION_DOT": 7.5e-07, "MEAN_MOTION_DDOT": 0}, "tle": {"line1": "1 31357U 99025BRM 25345.03996100  .00000075  00000+0  56370-4 0  9997", "line2": "2 31357  98.6116  16.0927 0048961 297.6901  91.8137 14.18526149966808"}}, "geometry": {"type": "Point", "coordinates": [172.08970163253937, -71.81339934743602]}}, {"type": "Feature", "properties": {"norad_id": 31358, "name": "FENGYUN 1C DEB", "group": "fengyun-1c-debris", "lat": 67.04227865389872, "lon": 123.75585815770823, "alt_km": 471.0175951852052, "timestamp": "2025-12-14T14:39:29.652540+00:00", "meta": {"OBJECT_NAME": "FENGYUN 1C DEB", "OBJECT_ID": "1999-025BRN", "EPOCH": "2025-12-12T06:50:22.254720", "MEAN_MOTION": 15.18454851, "ECCENTRICITY": 0.00435521, "INCLINATION": 98.9067, "RA_OF_ASC_NODE": 279.2887, "ARG_OF_PERICENTER": 114.9746, "MEAN_ANOMALY": 245.6017, "EPHEMERIS_TYPE": 0, "CLASSIFICATION_TYPE": "U", "NORAD_CAT_ID": 31358, "ELEMENT_SET_NO": 999, "REV_AT_EPOCH": 97563, "BSTAR": 0.0111955, "MEAN_MOTION_DOT": 0.0024375, "MEAN_MOTION_DDOT": 0}, "tle": {"line1": "1 31358U 99025BRN 25346.28497980  .00243750  00000+0  11195-1 0  9990", "line2": "2 31358  98.9067 279.2887 0043552 114.9746 245.6017 15.18454851975632"}}, "geometry": {"type": "Point", "coordinates": [123.75585815770823, 67.04227865389872]}}, {"type": "Feature", "properties": {"norad_id": 31361, "name": "FENGYUN 1C DEB", "group": "fengyun-1c-debris", "lat": 31.950972584749717, "lon": -41.533396955053874, "alt_km": 803.0858663432055, "timestamp": "2025-12-14T14:39:29.652550+00:00", "meta": {"OBJECT_NAME": "FENGYUN 1C DEB", "OBJECT_ID": "1999-025BRR", "EPOCH": "2025-12-13T09:42:45.929664", "MEAN_MOTION": 14.17745819, "ECCENTRICITY": 0.00461491, "INCLINATION": 98.5508, "RA_OF_ASC_NODE": 322.6898, "ARG_OF_PERICENTER": 68.7951, "MEAN_ANOMALY": 291.8146, "EPHEMERIS_TYPE": 0, "CLASSIFICATION_TYPE": "U", "NORAD_CAT_ID": 31361, "ELEMENT_SET_NO": 999, "REV_AT_EPOCH": 96573, "BSTAR": 0.00021329988, "MEAN_MOTION_DOT": 3.98e-06, "MEAN_MOTION_DDOT": 0}, "tle": {"line1": "1 31361U 99025BRR 25347.40469826  .00000398  00000+0  21330-3 0  9990", "line2": "2 31361  98.5508 322.6898 0046149  68.7951 291.8146 14.17745819965737"}}, "geometry": {"type": "Point", "coordinates": [-41.533396955053874, 31.950972584749717]}}]}